,Suburb,Rooms,Type,Date,Distance,Postcode,Bedroom,Bathroom,Car,Landsize,Latitude,Longtitude,ParkingArea,Price
14659,Glenroy,3,h,14/10/2017,11.2,3046,3,1,1,620,-37.69885,144.93634,Indoor,685500
14660,Glenroy,3,h,14/10/2017,11.2,3046,3,1,1,580,-37.69913,144.92563,Parkade,752000
14661,Glenroy,3,h,14/10/2017,11.2,3046,3,1,3,604,-37.70857,144.90641,Carport,770000
14664,Greensborough,3,h,14/10/2017,16.1,3088,3,1,1,594,-37.70986,145.09941,Indoor,700000
14665,Greensborough,3,h,14/10/2017,16.1,3088,3,1,1,666,-37.71252,145.09959,Carport,892500
14666,Greensborough,3,h,14/10/2017,16.1,3088,3,1,2,358,-37.69996,145.09199,Detached Garage,652000
14671,Hampton,3,h,14/10/2017,13.8,3188,3,2,1,544,-37.94311,145.01272,Outdoor Stall,2095000
14674,Hampton,4,t,14/10/2017,13.8,3188,4,2,2,385,-37.93595,145.01746,Detached Garage,1550000
14685,Hawthorn,4,h,14/10/2017,5.3,3122,4,3,1,558,-37.82215,145.02077,Parkade,2800000
14694,Highett,2,t,14/10/2017,16.0,3190,2,1,2,255,-37.95616,145.05188,Attached Garage,815000
14697,Hillside,4,h,14/10/2017,18.0,3037,4,1,1,469,-37.70161,144.74978,Underground,531000
14698,Hillside,4,h,14/10/2017,18.0,3037,4,2,2,622,-37.69884,144.75352,Outdoor Stall,525000
14699,Hoppers Crossing,4,h,14/10/2017,18.4,3029,4,1,2,589,-37.86993,144.68008,Carport,525000
14700,Hoppers Crossing,4,h,14/10/2017,18.4,3029,4,2,2,595,-37.85075,144.67383,Detached Garage,565000
14702,Hoppers Crossing,4,h,14/10/2017,18.4,3029,4,2,2,624,-37.86939,144.6905,Indoor,593150
14703,Hughesdale,3,h,14/10/2017,12.3,3166,3,2,2,354,-37.90468,145.08213,Parkade,1250000
14711,Jacana,3,h,14/10/2017,14.0,3047,3,1,0,723,-37.69064,144.91105,Attached Garage,570000
14712,Keilor Downs,4,h,14/10/2017,15.5,3038,4,1,0,659,-37.71988,144.81086,Carport,700000
14714,Keilor East,3,h,14/10/2017,11.7,3033,3,1,2,585,-37.7363,144.86579,Attached Garage,950000
14715,Keilor East,3,h,14/10/2017,11.7,3033,3,1,2,624,-37.74588,144.87044,Indoor,915000
14716,Keilor East,3,h,14/10/2017,11.7,3033,3,2,2,310,-37.74804,144.87039,Parkade,990000
14717,Keilor East,3,h,14/10/2017,11.7,3033,3,1,1,607,-37.73129,144.86556,Underground,700000
14718,Keilor East,3,h,14/10/2017,11.7,3033,3,1,2,547,-37.74525,144.87401,Outdoor Stall,850000
14724,Kew,4,h,14/10/2017,5.4,3101,4,2,2,714,-37.79757,145.04323,Detached Garage,1720000
14732,Kew East,4,h,14/10/2017,7.3,3102,4,2,2,650,-37.79135,145.04348,Carport,2000000
14733,Kew East,4,h,14/10/2017,7.3,3102,4,2,2,583,-37.79437,145.03984,Detached Garage,1850000
14736,Knoxfield,4,h,14/10/2017,23.3,3180,4,3,2,666,-37.88343,145.24081,Parkade,980000
14737,Lalor,4,h,14/10/2017,16.3,3075,4,1,2,735,-37.66088,145.0113,Underground,755000
14738,Lalor,3,h,14/10/2017,16.3,3075,3,1,4,624,-37.66285,145.01628,Outdoor Stall,771000
14741,Lalor,3,h,14/10/2017,16.3,3075,3,1,2,604,-37.67002,145.0144,Detached Garage,760000
14742,Lalor,3,h,14/10/2017,16.3,3075,3,2,1,555,-37.66281,145.01185,Attached Garage,685500
14747,Maidstone,2,t,14/10/2017,6.4,3012,2,1,2,210,-37.78706,144.86538,Parking Pad,715000
14752,Maribyrnong,4,h,14/10/2017,4.3,3032,4,2,2,476,-37.76485,144.88545,Parkade,1190000
14762,Melton South,3,h,14/10/2017,29.8,3338,3,1,2,605,-37.70486,144.5728,Indoor,450000
14763,Melton South,4,h,14/10/2017,29.8,3338,4,2,2,589,-37.69548,144.57413,Parkade,420000
14766,Melton West,4,h,14/10/2017,31.7,3337,4,2,2,601,-37.66513,144.55075,Carport,530000
14767,Melton West,4,h,14/10/2017,31.7,3337,4,2,2,888,-37.67234,144.54543,Detached Garage,630000
14768,Mentone,4,h,14/10/2017,20.0,3194,4,2,2,590,-37.98019,145.09049,Attached Garage,950000
14771,Mentone,4,h,14/10/2017,20.0,3194,4,3,2,741,-37.9839,145.05638,Carport,1800000
14775,Mernda,3,h,14/10/2017,25.9,3754,3,2,1,212,-37.59783,145.08033,Parkade,460000
14776,Mernda,4,h,14/10/2017,25.9,3754,4,2,2,400,-37.60312,145.06633,Carport,517500
14777,Middle Park,4,h,14/10/2017,3.0,3206,4,3,3,476,-37.85601,144.96596,Detached Garage,6370000
14778,Mill Park,3,h,14/10/2017,17.9,3082,3,2,1,537,-37.66925,145.04983,Attached Garage,660000
14782,Mitcham,4,h,14/10/2017,17.2,3132,4,2,2,699,-37.82525,145.21123,Indoor,1705000
14784,Mitcham,4,h,14/10/2017,17.2,3132,4,2,2,703,-37.81103,145.20605,Underground,993000
14785,Mitcham,3,h,14/10/2017,17.2,3132,3,2,2,371,-37.81333,145.21214,Outdoor Stall,1104000
14788,Montmorency,3,h,14/10/2017,16.2,3094,3,1,2,476,-37.72764,145.12672,Attached Garage,841000
14791,Moonee Ponds,2,h,14/10/2017,6.2,3039,2,1,1,226,-37.77096,144.93124,Detached Garage,792000
14795,Mooroolbark,4,h,14/10/2017,26.5,3138,4,2,2,913,-37.77238,145.31959,Carport,728000
14798,Mount Waverley,4,h,14/10/2017,14.2,3149,4,2,1,762,-37.88457,145.13436,Indoor,1775000
14799,Mount Waverley,3,h,14/10/2017,14.2,3149,3,1,2,864,-37.88925,145.1132,Carport,950000
14801,Mount Waverley,4,h,14/10/2017,14.2,3149,4,3,4,878,-37.86003,145.13038,Attached Garage,1650000
14804,Mount Waverley,5,h,14/10/2017,14.2,3149,5,5,2,695,-37.8814,145.12711,Underground,2820000
14806,Mount Waverley,3,h,14/10/2017,14.2,3149,3,1,1,843,-37.88494,145.12807,Parking Pad,1375000
14809,Mulgrave,4,h,14/10/2017,18.8,3170,4,2,0,653,-37.9256,145.16459,Attached Garage,1000000
14810,Mulgrave,3,h,14/10/2017,18.8,3170,3,1,2,687,-37.92608,145.16715,Indoor,860000
14815,Newport,2,h,14/10/2017,6.2,3015,2,1,1,226,-37.84668,144.8904,Carport,1017500
14822,Northcote,3,h,14/10/2017,5.3,3070,3,2,0,193,-37.76627,144.99345,Detached Garage,1150000
14823,Northcote,3,h,14/10/2017,5.3,3070,3,2,4,634,-37.77625,144.99572,Attached Garage,2750000
14829,Oak Park,3,h,14/10/2017,11.2,3046,3,1,1,570,-37.71611,144.91064,Indoor,780000
14830,Oak Park,3,t,14/10/2017,11.2,3046,3,2,1,304,-37.71549,144.91587,Parkade,916000
14832,Oakleigh,5,h,14/10/2017,12.3,3166,5,3,4,667,-37.90037,145.10281,Outdoor Stall,1828000
14838,Ormond,4,h,14/10/2017,11.4,3204,4,2,2,659,-37.90402,145.03029,Carport,1920000
14841,Pakenham,3,h,14/10/2017,47.3,3810,3,2,2,648,-38.08547,145.47262,Indoor,493000
14842,Parkdale,3,h,14/10/2017,21.5,3195,3,3,4,791,-37.99309,145.07113,Parkade,1775000
14848,Pascoe Vale,3,t,14/10/2017,8.5,3044,3,2,2,655,-37.73343,144.93555,Attached Garage,800000
14849,Pascoe Vale,3,t,14/10/2017,8.5,3044,3,2,2,1021,-37.71725,144.94551,Indoor,710000
14853,Pascoe Vale,4,h,14/10/2017,8.5,3044,4,1,3,568,-37.72516,144.94884,Carport,780000
14856,Point Cook,4,h,14/10/2017,14.7,3030,4,2,2,663,-37.90162,144.74755,Indoor,711500
14857,Point Cook,4,h,14/10/2017,14.7,3030,4,3,2,700,-37.89247,144.73598,Carport,800000
14859,Port Melbourne,4,h,14/10/2017,3.5,3207,3,3,1,421,-37.83706,144.9479,Attached Garage,2926000
14862,Port Melbourne,4,h,14/10/2017,3.5,3207,4,2,3,391,-37.83964,144.935,Carport,2160000
14872,Preston,3,h,14/10/2017,8.4,3072,3,1,2,455,-37.73184,145.0079,Outdoor Stall,850000
14878,Reservoir,4,h,14/10/2017,12.0,3073,3,2,2,289,-37.71222,145.02252,Parkade,725000
14880,Reservoir,3,h,14/10/2017,12.0,3073,3,1,1,644,-37.71798,145.02315,Outdoor Stall,750000
14886,Reservoir,4,h,14/10/2017,12.0,3073,4,3,4,926,-37.69765,144.99106,Parkade,960000
14887,Reservoir,3,h,14/10/2017,12.0,3073,3,1,1,750,-37.70732,145.0125,Underground,930000
14889,Richmond,4,h,14/10/2017,2.4,3121,4,2,2,351,-37.81176,145.00649,Detached Garage,1750000
14896,Richmond,3,h,14/10/2017,2.4,3121,3,2,0,190,-37.81852,144.99008,Indoor,1100000
14902,Ringwood,3,h,14/10/2017,19.9,3134,3,1,1,535,-37.8018,145.23749,Attached Garage,852000
14904,Ringwood,4,h,14/10/2017,19.9,3134,4,2,2,656,-37.79111,145.24818,Parkade,958000
14907,Rosanna,3,h,14/10/2017,8.9,3084,3,2,2,580,-37.73713,145.06928,Attached Garage,950000
14910,Rowville,4,h,14/10/2017,23.5,3178,4,2,2,505,-37.93609,145.24614,Carport,865000
14912,Roxburgh Park,5,h,14/10/2017,20.6,3064,5,3,2,517,-37.63746,144.91719,Attached Garage,675000
14913,Roxburgh Park,3,h,14/10/2017,20.6,3064,3,2,2,487,-37.63555,144.93221,Carport,610000
14916,Seaford,4,h,14/10/2017,35.4,3198,4,2,2,767,-38.12211,145.1285,Indoor,890000
14925,South Morang,4,h,14/10/2017,20.5,3752,4,2,2,575,-37.65392,145.09725,Detached Garage,666000
14926,South Morang,4,h,14/10/2017,20.5,3752,4,2,2,588,-37.63177,145.06636,Attached Garage,710000
14928,South Morang,3,h,14/10/2017,20.5,3752,3,2,2,552,-37.63693,145.06482,Parkade,520000
14939,St Helena,4,h,14/10/2017,16.1,3088,4,2,2,778,-37.69324,145.13166,Outdoor Stall,910000
14946,Strathmore,4,h,14/10/2017,8.2,3041,4,2,1,738,-37.72898,144.91721,Underground,1310000
14947,Strathmore,4,h,14/10/2017,8.2,3041,4,2,2,696,-37.73492,144.90843,Outdoor Stall,1310000
14955,Sunshine North,5,h,14/10/2017,10.5,3020,5,3,3,561,-37.77863,144.84554,Carport,750000
14958,Sunshine West,3,h,14/10/2017,10.5,3020,3,1,0,613,-37.80276,144.81409,Indoor,590000
14959,Sunshine West,3,h,14/10/2017,10.5,3020,3,1,2,664,-37.79003,144.79651,Parkade,765000
14965,Tarneit,3,h,14/10/2017,18.4,3029,3,2,2,448,-37.84539,144.70244,Underground,535000
14968,Taylors Lakes,4,h,14/10/2017,15.5,3038,4,2,2,997,-37.69221,144.78209,Detached Garage,780000
14969,Templestowe,4,h,14/10/2017,15.5,3106,4,3,2,670,-37.76872,145.14192,Attached Garage,1450000
14973,Templestowe Lower,4,h,14/10/2017,12.4,3107,4,2,2,840,-37.77691,145.12143,Detached Garage,1350000
14974,Thomastown,3,h,14/10/2017,15.3,3074,3,2,2,666,-37.67353,145.01125,Attached Garage,850000
14975,Thomastown,3,h,14/10/2017,15.3,3074,3,1,4,706,-37.68439,145.00945,Indoor,720000
14976,Thomastown,4,h,14/10/2017,15.3,3074,4,2,2,527,-37.67309,144.98664,Parkade,750000
14977,Thomastown,3,h,14/10/2017,15.3,3074,3,2,3,682,-37.68283,144.98635,Carport,655000
14979,Thornbury,3,h,14/10/2017,7.0,3071,3,1,1,353,-37.75965,145.00284,Attached Garage,1370000
14983,Thornbury,2,h,14/10/2017,7.0,3071,2,2,1,256,-37.7618,145.00633,Indoor,1105000
14990,Tullamarine,4,h,14/10/2017,12.9,3043,4,2,2,634,-37.69594,144.87857,Indoor,735000
14993,Vermont South,4,h,14/10/2017,17.2,3133,4,2,2,668,-37.85227,145.17532,Attached Garage,1020000
14994,Viewbank,4,h,14/10/2017,8.9,3084,4,2,2,651,-37.73679,145.08485,Indoor,1080000
14995,Viewbank,4,h,14/10/2017,8.9,3084,4,2,1,696,-37.73966,145.08748,Parkade,1240000
14996,Viewbank,3,h,14/10/2017,8.9,3084,3,1,1,654,-37.73274,145.09805,Carport,930000
